{
  "type": "FeatureCollection",
  "features": [
    {
      "type": "Feature",
      "properties": {
        "norad_id": 36744,
        "name": "COMS 1",
        "group": "weather",
        "lat": 4.372243092810318,
        "lon": 171.4441511780862,
        "alt_km": 35788.06982763896,
        "timestamp": "2025-12-26T20:30:45.580617+00:00",
        "meta_object_name": "COMS 1",
        "meta_object_id": "2010-032A",
        "meta_epoch": "2025-12-25T12:42:15.782976",
        "meta_mean_motion": 1.00270082,
        "meta_eccentricity": 8.877e-05,
        "meta_inclination": 4.3689,
        "meta_ra_of_asc_node": 77.8525,
        "meta_arg_of_pericenter": 213.8569,
        "meta_mean_anomaly": 121.3153,
        "meta_ephemeris_type": 0,
        "meta_classification_type": "U",
        "meta_norad_cat_id": 36744,
        "meta_element_set_no": 999,
        "meta_rev_at_epoch": 4934,
        "meta_bstar": 0,
        "meta_mean_motion_dot": -3.24e-06,
        "meta_mean_motion_ddot": 0,
        "tle_line1": "1 36744U 10032A   25359.52934934 -.00000324  00000+0  00000+0 0  9991",
        "tle_line2": "2 36744   4.3689  77.8525 0000887 213.8569 121.3153  1.00270082 49343"
      },
      "geometry": {
        "type": "Point",
        "coordinates": [
          171.4441511780862,
          4.372243092810318
        ]
      }
    },
    {
      "type": "Feature",
      "properties": {
        "norad_id": 37214,
        "name": "FENGYUN 3B",
        "group": "weather",
        "lat": -64.11376253703318,
        "lon": -158.10715593370264,
        "alt_km": 845.2604235080717,
        "timestamp": "2025-12-26T20:30:45.580628+00:00",
        "meta_object_name": "FENGYUN 3B",
        "meta_object_id": "2010-059A",
        "meta_epoch": "2025-12-26T15:03:57.117024",
        "meta_mean_motion": 14.14795363,
        "meta_eccentricity": 0.00214764,
        "meta_inclination": 98.9886,
        "meta_ra_of_asc_node": 40.7006,
        "meta_arg_of_pericenter": 317.8587,
        "meta_mean_anomaly": 212.6742,
        "meta_ephemeris_type": 0,
        "meta_classification_type": "U",
        "meta_norad_cat_id": 37214,
        "meta_element_set_no": 999,
        "meta_rev_at_epoch": 78302,
        "meta_bstar": 0.00027208242,
        "meta_mean_motion_dot": 4.8e-06,
        "meta_mean_motion_ddot": 0,
        "tle_line1": "1 37214U 10059A   25360.62774441  .00000480  00000+0  27208-3 0  9996",
        "tle_line2": "2 37214  98.9886  40.7006 0021476 317.8587 212.6742 14.14795363783020"
      },
      "geometry": {
        "type": "Point",
        "coordinates": [
          -158.10715593370264,
          -64.11376253703318
        ]
      }
    },
    {
      "type": "Feature",
      "properties": {
        "norad_id": 37849,
        "name": "SUOMI NPP",
        "group": "weather",
        "lat": -33.580561107209,
        "lon": -56.04196997002297,
        "alt_km": 834.1257198516432,
        "timestamp": "2025-12-26T20:30:45.580638+00:00",
        "meta_object_name": "SUOMI NPP",
        "meta_object_id": "2011-061A",
        "meta_epoch": "2025-12-22T15:10:21.732672",
        "meta_mean_motion": 14.19516903,
        "meta_eccentricity": 0.00024883,
        "meta_inclination": 98.7787,
        "meta_ra_of_asc_node": 293.8852,
        "meta_arg_of_pericenter": 103.0781,
        "meta_mean_anomaly": 257.0673,
        "meta_ephemeris_type": 0,
        "meta_classification_type": "U",
        "meta_norad_cat_id": 37849,
        "meta_element_set_no": 999,
        "meta_rev_at_epoch": 73339,
        "meta_bstar": 6.3406935e-05,
        "meta_mean_motion_dot": 8.9e-07,
        "meta_mean_motion_ddot": 0,
        "tle_line1": "1 37849U 11061A   25356.63219598  .00000089  00000+0  63407-4 0  9994",
        "tle_line2": "2 37849  98.7787 293.8852 0002488 103.0781 257.0673 14.19516903733392"
      },
      "geometry": {
        "type": "Point",
        "coordinates": [
          -56.04196997002297,
          -33.580561107209
        ]
      }
    },
    {
      "type": "Feature",
      "properties": {
        "norad_id": 38552,
        "name": "METEOSAT-10 (MSG-3)",
        "group": "weather",
        "lat": -1.3176048611629352,
        "lon": 43.59585327650109,
        "alt_km": 35786.2286120416,
        "timestamp": "2025-12-26T20:30:45.580649+00:00",
        "meta_object_name": "METEOSAT-10 (MSG-3)",
        "meta_object_id": "2012-035B",
        "meta_epoch": "2025-12-25T19:55:02.807904",
        "meta_mean_motion": 1.00266624,
        "meta_eccentricity": 0.0001479,
        "meta_inclination": 4.2575,
        "meta_ra_of_asc_node": 61.6862,
        "meta_arg_of_pericenter": 265.3349,
        "meta_mean_anomaly": 66.5982,
        "meta_ephemeris_type": 0,
        "meta_classification_type": "U",
        "meta_norad_cat_id": 38552,
        "meta_element_set_no": 999,
        "meta_rev_at_epoch": 4911,
        "meta_bstar": 0,
        "meta_mean_motion_dot": 1.4e-07,
        "meta_mean_motion_ddot": 0,
        "tle_line1": "1 38552U 12035B   25359.82989361  .00000014  00000+0  00000+0 0  9997",
        "tle_line2": "2 38552   4.2575  61.6862 0001479 265.3349  66.5982  1.00266624 49118"
      },
      "geometry": {
        "type": "Point",
        "coordinates": [
          43.59585327650109,
          -1.3176048611629352
        ]
      }
    },
    {
      "type": "Feature",
      "properties": {
        "norad_id": 38771,
        "name": "METOP-B",
        "group": "weather",
        "lat": -80.28768623478253,
        "lon": 113.74017518788902,
        "alt_km": 830.1344732968482,
        "timestamp": "2025-12-26T20:30:45.580659+00:00",
        "meta_object_name": "METOP-B",
        "meta_object_id": "2012-049A",
        "meta_epoch": "2025-12-26T14:09:27.331488",
        "meta_mean_motion": 14.21413556,
        "meta_eccentricity": 0.00033059,
        "meta_inclination": 98.678,
        "meta_ra_of_asc_node": 50.3126,
        "meta_arg_of_pericenter": 115.4987,
        "meta_mean_anomaly": 244.6532,
        "meta_ephemeris_type": 0,
        "meta_classification_type": "U",
        "meta_norad_cat_id": 38771,
        "meta_element_set_no": 999,
        "meta_rev_at_epoch": 68874,
        "meta_bstar": 8.2184285e-05,
        "meta_mean_motion_dot": 1.36e-06,
        "meta_mean_motion_ddot": 0,
        "tle_line1": "1 38771U 12049A   25360.58989967  .00000136  00000+0  82184-4 0  9995",
        "tle_line2": "2 38771  98.6780  50.3126 0003305 115.4987 244.6532 14.21413556688740"
      },
      "geometry": {
        "type": "Point",
        "coordinates": [
          113.74017518788902,
          -80.28768623478253
        ]
      }
    },
    {
      "type": "Feature",
      "properties": {
        "norad_id": 39216,
        "name": "INSAT-3D",
        "group": "weather",
        "lat": 1.4846851974625566,
        "lon": 172.810406364589,
        "alt_km": 35782.72910178603,
        "timestamp": "2025-12-26T20:30:45.580669+00:00",
        "meta_object_name": "INSAT-3D",
        "meta_object_id": "2013-038B",
        "meta_epoch": "2025-12-26T13:16:21.696096",
        "meta_mean_motion": 1.00273342,
        "meta_eccentricity": 0.00019585,
        "meta_inclination": 1.4786,
        "meta_ra_of_asc_node": 84.84,
        "meta_arg_of_pericenter": 158.2091,
        "meta_mean_anomaly": 180.8903,
        "meta_ephemeris_type": 0,
        "meta_classification_type": "U",
        "meta_norad_cat_id": 39216,
        "meta_element_set_no": 999,
        "meta_rev_at_epoch": 4534,
        "meta_bstar": 0,
        "meta_mean_motion_dot": -3.17e-06,
        "meta_mean_motion_ddot": 0,
        "tle_line1": "1 39216U 13038B   25360.55302889 -.00000317  00000+0  00000+0 0  9992",
        "tle_line2": "2 39216   1.4786  84.8400 0001958 158.2091 180.8903  1.00273342 45349"
      },
      "geometry": {
        "type": "Point",
        "coordinates": [
          172.810406364589,
          1.4846851974625566
        ]
      }
    },
    {
      "type": "Feature",
      "properties": {
        "norad_id": 39260,
        "name": "FENGYUN 3C",
        "group": "weather",
        "lat": -50.702612758302315,
        "lon": 147.3453230088762,
        "alt_km": 844.1609256681095,
        "timestamp": "2025-12-26T20:30:45.580679+00:00",
        "meta_object_name": "FENGYUN 3C",
        "meta_object_id": "2013-052A",
        "meta_epoch": "2025-12-26T14:20:07.132128",
        "meta_mean_motion": 14.15700454,
        "meta_eccentricity": 0.00150583,
        "meta_inclination": 98.478,
        "meta_ra_of_asc_node": 337.6011,
        "meta_arg_of_pericenter": 156.1846,
        "meta_mean_anomaly": 204.0028,
        "meta_ephemeris_type": 0,
        "meta_classification_type": "U",
        "meta_norad_cat_id": 39260,
        "meta_element_set_no": 999,
        "meta_rev_at_epoch": 63414,
        "meta_bstar": 7.587478e-05,
        "meta_mean_motion_dot": 1.08e-06,
        "meta_mean_motion_ddot": 0,
        "tle_line1": "1 39260U 13052A   25360.59730477  .00000108  00000+0  75875-4 0  9993",
        "tle_line2": "2 39260  98.4780 337.6011 0015058 156.1846 204.0028 14.15700454634144"
      },
      "geometry": {
        "type": "Point",
        "coordinates": [
          147.3453230088762,
          -50.702612758302315
        ]
      }
    }
  ]
}